School,Street,City,District,County,State,Zip,Ranking,StatusType,Latitude,Longitude
FAME Public Charter,"39899 Balentine Drive, Suite 335",Newark,Alameda County Office of Education,Alameda,CA,94560.0,4,Active,37.52197,-121.9926
Envision Academy for Arts & Technology,1515 Webster Street,Oakland,Alameda County Office of Education,Alameda,CA,94612.0,2,Active,37.804520000000004,-122.26815
Community School for Creative Education,8755 Fontaine Street,Oakland,Alameda County Office of Education,Alameda,CA,94605.0,1,Active,37.762988,-122.15168
Yu Ming Charter,321 Tenth Street,Oakland,Alameda County Office of Education,Alameda,CA,94607.0,10,Active,37.800359,-122.26988999999999
Urban Montessori Charter,5328 Brann Street,Oakland,Alameda County Office of Education,Alameda,CA,94619.0,1,Active,37.778352000000005,-122.1895
Alameda County Juvenile Hall/Court,2500 Fairmont Avenue,San Leandro,Alameda County Office of Education,Alameda,CA,94578.0,,Active,37.712878,-122.11173000000001
Alameda County Community,313 West Winton Avenue,Hayward,Alameda County Office of Education,Alameda,CA,94544.0,,Active,37.658212,-122.09713
Cox Academy,9860 Sunnyside Street,Oakland,Alameda County Office of Education,Alameda,CA,94578.0,2,Active,37.746513,-122.16181999999999
Lazear Charter Academy,824 29th Avenue,Oakland,Alameda County Office of Education,Alameda,CA,94578.0,2,Active,37.776239000000004,-122.23207
California School for the Blind,500 Walnut Avenue,Fremont,California School for the Blind (State Special Schl),Alameda,CA,94601.0,,Active,37.562576,-121.96563
California School for the Deaf-Fremont,39350 Gallaudet Drive,Fremont,California School for the Deaf-Fremont (State Special Schl),Alameda,CA,94501.0,,Active,37.558956,-121.96551000000001
Alameda Science and Technology Institute,555 Atlantic Avenue,Alameda,Alameda Unified,Alameda,CA,94501.0,10,Active,37.779884,-122.28052
Ruby Bridges Elementary,351 Jack London Avenue,Alameda,Alameda Unified,Alameda,CA,94501.0,5,Active,37.781834,-122.28613999999999
Nea Community Learning Center,1900 Third St,Alameda,Alameda Unified,Alameda,CA,94501.0,7,Active,37.779051,-122.28703
Maya Lin,825 Taylor Street,Alameda,Alameda Unified,Alameda,CA,94621.0,4,Active,37.772724,-122.27188999999998
Alameda High,2201 Encinal Avenue,Alameda,Alameda Unified,Alameda,CA,94501.0,8,Active,37.764294,-122.24807
Alameda Community Learning Center,1900 Third St,Alameda,Alameda Unified,Alameda,CA,94501.0,10,Active,37.779051,-122.28703
Encinal High,210 Central Avenue,Alameda,Alameda Unified,Alameda,CA,94501.0,7,Active,37.773616,-122.29026999999999
Donald D. Lum Elementary,1801 Sandcreek Way,Alameda,Alameda Unified,Alameda,CA,94501.0,8,Active,37.762203,-122.25895
Edison Elementary,2700 Buena Vista Avenue,Alameda,Alameda Unified,Alameda,CA,94501.0,10,Active,37.765083000000004,-122.23421
Frank Otis Elementary,3010 Fillmore Street,Alameda,Alameda Unified,Alameda,CA,94501.0,9,Active,37.754028999999996,-122.23799
Franklin Elementary,1433 San Antonio Avenue,Alameda,Alameda Unified,Alameda,CA,94501.0,6,Active,37.769036,-122.2616
Franklin Elementary,1433 San Antonio Avenue,Alameda,Alameda Unified,Alameda,CA,94501.0,9,Active,37.769036,-122.2616
Franklin Elementary,915 Foothill Boulevard,Oakland,Oakland Unified,Alameda,CA,94618.0,6,Active,37.793794,-122.24829
Franklin Elementary,915 Foothill Boulevard,Oakland,Oakland Unified,Alameda,CA,94618.0,9,Active,37.793794,-122.24829
Henry Haight Elementary,2025 Santa Clara Avenue,Alameda,Alameda Unified,Alameda,CA,94501.0,7,Active,37.769332,-122.25106000000001
Lincoln Middle,1250 Fernside Boulevard,Alameda,Alameda Unified,Alameda,CA,94501.0,9,Active,37.752241999999995,-122.23276000000001
Washington Elementary,2300 Martin Luther King Junior Way,Berkeley,Berkeley Unified,Alameda,CA,94705.0,1,Active,37.866959,-122.27257
Washington Elementary,2300 Martin Luther King Junior Way,Berkeley,Berkeley Unified,Alameda,CA,94705.0,8,Active,37.866959,-122.27257
Washington Elementary,250 Dutton Avenue,San Leandro,San Leandro Unified,Alameda,CA,94580.0,1,Active,37.732427,-122.15676
Washington Elementary,250 Dutton Avenue,San Leandro,San Leandro Unified,Alameda,CA,94580.0,8,Active,37.732427,-122.15676
Will C. Wood Middle,420 Grand Street,Alameda,Alameda Unified,Alameda,CA,94706.0,5,Active,37.763031,-122.26191999999999
William G. Paden Elementary,444 Central Avenue,Alameda,Alameda Unified,Alameda,CA,94706.0,7,Active,37.771566,-122.28446000000001
Amelia Earhart Elementary,400 Packet Landing Road,Alameda,Alameda Unified,Alameda,CA,94706.0,10,Active,37.745289,-122.23928000000001
Albany High,603 Key Route Boulevard,Albany,Albany City Unified,Alameda,CA,94706.0,9,Active,37.896661,-122.29257
Cornell Elementary,920 Talbot Avenue,Albany,Albany City Unified,Alameda,CA,94566.0,9,Active,37.889826,-122.29518
Albany Middle,1259 Brighton Avenue,Albany,Albany City Unified,Alameda,CA,94566.0,10,Active,37.897851,-122.2953
Marin Elementary,1001 Santa Fe Avenue,Albany,Albany City Unified,Alameda,CA,94566.0,10,Active,37.888559,-122.28817
Ocean View Elementary,1000 Jackson Street,Albany,Albany City Unified,Alameda,CA,94566.0,8,Active,37.887539000000004,-122.30091999999999
Foothill High,4375 Foothill Road,Pleasanton,Amador Valley Joint Union High,Alameda,CA,94710.0,10,Merged,,
Foothill High,4375 Foothill Road,Pleasanton,Pleasanton Unified,Alameda,CA,94566.0,10,Active,37.671579,-121.91994
Village High,4750 First Street,Pleasanton,Amador Valley Joint Union High,Alameda,CA,94710.0,,Merged,,
Village High,4645 Bernal Avenue,Pleasanton,Pleasanton Unified,Alameda,CA,94566.0,,Active,37.655190000000005,-121.87513999999999
Amador Valley High,1155 Santa Rita Road,Pleasanton,Amador Valley Joint Union High,Alameda,CA,94702.0,10,Merged,,
Amador Valley High,1155 Santa Rita Road,Pleasanton,Pleasanton Unified,Alameda,CA,94566.0,10,Active,37.668296000000005,-121.87326999999999
Dublin High,8151 Village Parkway,Dublin,Amador Valley Joint Union High,Alameda,CA,94704.0,10,Merged,,
Dublin High,8151 Village Parkway,Dublin,Dublin Unified,Alameda,CA,94566.0,10,Active,37.720996,-121.92638999999998
REALM Charter Middle,2023 Eighth Street,Berkeley,Berkeley Unified,Alameda,CA,94703.0,3,Active,37.867478999999996,-122.29491999999999
REALM Charter High,2023 Eighth Street,Berkeley,Berkeley Unified,Alameda,CA,94705.0,1,Active,37.867478999999996,-122.29491999999999
Berkeley High,1980 Allston Way,Berkeley,Berkeley Unified,Alameda,CA,94704.0,5,Active,37.868913,-122.2712
Berkeley Technology Academy,2701 Martin Luther King Junior Way,Berkeley,Berkeley Unified,Alameda,CA,94708.0,3,Active,37.85974,-122.27171000000001
Martin Luther King Middle,1781 Rose Street,Berkeley,Berkeley Unified,Alameda,CA,94707.0,9,Active,37.881113,-122.277
Willard Middle,2425 Stuart Street,Berkeley,Berkeley Unified,Alameda,CA,94705.0,7,Active,37.859666,-122.25862
Rosa Parks Environmental Science Magnet,920 Allston Way,Berkeley,Berkeley Unified,Alameda,CA,94702.0,9,Active,37.865652000000004,-122.29471000000001
Cragmont Elementary,830 Regal Road,Berkeley,Berkeley Unified,Alameda,CA,94705.0,7,Active,37.892672999999995,-122.26355
Emerson Elementary,2800 Forest Avenue,Berkeley,Berkeley Unified,Alameda,CA,94703.0,1,Active,37.86149,-122.25111000000001
Emerson Elementary,2800 Forest Avenue,Berkeley,Berkeley Unified,Alameda,CA,94703.0,7,Active,37.86149,-122.25111000000001
Emerson Elementary,4803 Lawton Avenue,Oakland,Oakland Unified,Alameda,CA,94621.0,1,Active,37.834628,-122.2573
Emerson Elementary,4803 Lawton Avenue,Oakland,Oakland Unified,Alameda,CA,94621.0,7,Active,37.834628,-122.2573
Jefferson Elementary,1400 Ada Street,Berkeley,Berkeley Unified,Alameda,CA,94704.0,2,Active,37.878921000000005,-122.28521
Jefferson Elementary,1400 Ada Street,Berkeley,Berkeley Unified,Alameda,CA,94704.0,9,Active,37.878921000000005,-122.28521
Jefferson Elementary,14300 Bancroft Avenue,San Leandro,San Leandro Unified,Alameda,CA,94580.0,2,Active,37.712441,-122.13591000000001
Jefferson Elementary,14300 Bancroft Avenue,San Leandro,San Leandro Unified,Alameda,CA,94580.0,9,Active,37.712441,-122.13591000000001
Leconte Elementary,2241 Russell Street,Berkeley,Berkeley Unified,Alameda,CA,94708.0,6,Active,37.857352,-122.26231000000001
Malcolm X Elementary,1731 Prince Street,Berkeley,Berkeley Unified,Alameda,CA,94709.0,9,Active,37.8522,-122.27373
Longfellow Arts and Technology Middle,1500 Derby Street,Berkeley,Berkeley Unified,Alameda,CA,94705.0,7,Active,37.858686999999996,-122.28
Oxford Elementary,1130 Oxford Street,Berkeley,Berkeley Unified,Alameda,CA,94705.0,9,Active,37.887796,-122.26827
Thousand Oaks Elementary,840 Colusa Avenue,Berkeley,Berkeley Unified,Alameda,CA,94703.0,8,Active,37.893082,-122.2804
Berkeley Arts Magnet at Whittier,1645 Milvia Street,Berkeley,Berkeley Unified,Alameda,CA,94546.0,8,Active,37.876919,-122.27123
John Muir Elementary,2955 Claremont Avenue,Berkeley,Berkeley Unified,Alameda,CA,94546.0,4,Active,37.857194,-122.24593
Castro Valley High,19400 Santa Maria Avenue,Castro Valley,Castro Valley Unified,Alameda,CA,94552.0,8,Active,37.705184,-122.07847
Redwood Continuation High,18400 Clifton Way,Castro Valley,Castro Valley Unified,Alameda,CA,94546.0,,Active,37.7128,-122.09305
Castro Valley Elementary,20185 San Miguel Avenue,Castro Valley,Castro Valley Unified,Alameda,CA,94546.0,7,Active,37.698046999999995,-122.08102
Chabot Elementary,19104 Lake Chabot Road,Castro Valley,Castro Valley Unified,Alameda,CA,94546.0,10,Active,37.707084,-122.09012
Chabot Elementary,19104 Lake Chabot Road,Castro Valley,Castro Valley Unified,Alameda,CA,94546.0,9,Active,37.707084,-122.09012
Chabot Elementary,6686 Chabot Road,Oakland,Oakland Unified,Alameda,CA,94606.0,10,Active,37.850664,-122.24293
Chabot Elementary,6686 Chabot Road,Oakland,Oakland Unified,Alameda,CA,94606.0,9,Active,37.850664,-122.24293
Creekside Middle,19722 Center Street,Castro Valley,Castro Valley Unified,Alameda,CA,94546.0,9,Active,37.699926,-122.06123999999998
Independent Elementary,21201 Independent School Road,Castro Valley,Castro Valley Unified,Alameda,CA,94546.0,10,Active,37.699109,-122.04975
Marshall Elementary,20111 Marshall Street,Castro Valley,Castro Valley Unified,Alameda,CA,94546.0,8,Active,37.697794,-122.06573
Palomares Elementary,6395 Palo Verde Road,Castro Valley,Castro Valley Unified,Alameda,CA,94546.0,10,Active,37.695582,-122.0248
Proctor Elementary,17520 Redwood Road,Castro Valley,Castro Valley Unified,Alameda,CA,94552.0,9,Active,37.716741999999996,-122.07366
Stanton Elementary,2644 Somerset Avenue,Castro Valley,Castro Valley Unified,Alameda,CA,94608.0,9,Active,37.699908,-122.09352
Vannoy Elementary,5100 Vannoy,Castro Valley,Castro Valley Unified,Alameda,CA,94608.0,10,Active,37.706635999999996,-122.05868000000001
Canyon Middle,19600 Cull Canyon Road,Castro Valley,Castro Valley Unified,Alameda,CA,94608.0,9,Active,37.705771999999996,-122.05426000000001
Jensen Ranch Elementary,20001 Carson Lane,Castro Valley,Castro Valley Unified,Alameda,CA,94608.0,10,Active,37.713125,-122.03121999999999
Emery Secondary,915 54th Street,Oakland,Emery Unified,Alameda,CA,94538.0,1,Active,37.838198,-122.27388
Anna Yates Elementary,1070 41st Street,Emeryville,Emery Unified,Alameda,CA,94538.0,4,Active,37.83222,-122.27837
American High,36300 Fremont Boulevard,Fremont,Fremont Unified,Alameda,CA,94539.0,9,Active,37.563645,-122.01746999999999
Vista Alternative,4455 Seneca Park Avenue,Fremont,Fremont Unified,Alameda,CA,94536.0,4,Active,37.518632000000004,-121.96491999999999
Circle of Independent Learning,4700 Calaveras Avenue,Fremont,Fremont Unified,Alameda,CA,94536.0,8,Active,37.537962,-121.99206000000001
Irvington High,41800 Blacow Road,Fremont,Fremont Unified,Alameda,CA,94538.0,10,Active,37.522653999999996,-121.96902
John F. Kennedy High,39999 Blacow Road,Fremont,Fremont Unified,Alameda,CA,94536.0,5,Active,37.528399,-121.98312
Mission San Jose High,41717 Palm Avenue,Fremont,Fremont Unified,Alameda,CA,94538.0,10,Active,37.54504,-121.93193000000001
Washington High,38442 Fremont Boulevard,Fremont,Fremont Unified,Alameda,CA,94538.0,7,Active,37.552082,-121.99484
John Blacow Elementary,40404 Sundale Drive,Fremont,Fremont Unified,Alameda,CA,94536.0,6,Active,37.527561,-121.97712
Brier Elementary,39201 Sundale Drive,Fremont,Fremont Unified,Alameda,CA,94536.0,8,Active,37.539776,-121.9847
Cabrillo Elementary,36700 San Pedro Drive,Fremont,Fremont Unified,Alameda,CA,94538.0,5,Active,37.550826,-122.02333
E. M. Grimmer Elementary,43030 Newport Drive,Fremont,Fremont Unified,Alameda,CA,94538.0,6,Active,37.519634,-121.951
Glenmoor Elementary,4620 Mattos Drive,Fremont,Fremont Unified,Alameda,CA,94536.0,9,Active,37.545703,-122.00487
Harvey Green Elementary,42875 Gatewood Street,Fremont,Fremont Unified,Alameda,CA,94539.0,9,Active,37.518135,-121.9581
J. Haley Durham Elementary,40292 Leslie Street,Fremont,Fremont Unified,Alameda,CA,94536.0,7,Active,37.542078000000004,-121.96688999999999
James Leitch Elementary,47100 Fernald Street,Fremont,Fremont Unified,Alameda,CA,94538.0,10,Active,37.486506,-121.92328
Joseph Azevada Elementary,39450 Royal Palm Drive,Fremont,Fremont Unified,Alameda,CA,94538.0,7,Active,37.53097,-121.99417
Tom Maloney Elementary,38700 Logan Drive,Fremont,Fremont Unified,Alameda,CA,94536.0,8,Active,37.545405,-121.99843
John G. Mattos Elementary,37944 Farwell Drive,Fremont,Fremont Unified,Alameda,CA,94538.0,9,Active,37.538095,-122.01172
Mission Valley Elementary,41700 Denise Street,Fremont,Fremont Unified,Alameda,CA,94536.0,10,Active,37.535790999999996,-121.94741
Niles Elementary,37141 Second Street,Fremont,Fremont Unified,Alameda,CA,94539.0,10,Active,37.57705,-121.98446000000001
O. N. Hirsch Elementary,41399 Chapel Way,Fremont,Fremont Unified,Alameda,CA,94536.0,10,Active,37.528227,-121.9629
Parkmont Elementary,2601 Parkside Drive,Fremont,Fremont Unified,Alameda,CA,94538.0,10,Active,37.560232,-121.98468000000001
Patterson Elementary,35521 Cabrillo Drive,Fremont,Fremont Unified,Alameda,CA,94538.0,8,Active,37.56225,-122.03085
Vallejo Mill Elementary,38569 Canyon Heights Drive,Fremont,Fremont Unified,Alameda,CA,94539.0,7,Active,37.574495,-121.9599
Warm Springs Elementary,47370 Warm Springs Boulevard,Fremont,Fremont Unified,Alameda,CA,94539.0,10,Active,37.482877,-121.92533999999999
Centerville Junior High,37720 Fremont Boulevard,Fremont,Fremont Unified,Alameda,CA,94538.0,8,Active,37.555648,-122.0019
G. M. Walters Junior High,39600 Logan Drive,Fremont,Fremont Unified,Alameda,CA,94538.0,5,Active,37.5373,-121.98586
John M. Horner Junior High,41365 Chapel Way,Fremont,Fremont Unified,Alameda,CA,94555.0,10,Active,37.528537,-121.96295
Thornton Junior High,4357 Thornton Avenue,Fremont,Fremont Unified,Alameda,CA,94538.0,9,Active,37.557124,-122.01454
William Hopkins Junior High,600 Driscoll Road,Fremont,Fremont Unified,Alameda,CA,94539.0,10,Active,37.54702,-121.94242
John Gomes Elementary,555 Lemos Lane,Fremont,Fremont Unified,Alameda,CA,94539.0,10,Active,37.550360999999995,-121.94761000000001
Brookvale Elementary,3400 Nicolet Avenue,Fremont,Fremont Unified,Alameda,CA,94555.0,9,Active,37.568768,-122.01398999999999
Warwick Elementary,3375 Warwick Road,Fremont,Fremont Unified,Alameda,CA,94539.0,9,Active,37.57651,-122.03048000000001
Joshua Chadbourne Elementary,801 Plymouth Avenue,Fremont,Fremont Unified,Alameda,CA,94536.0,10,Active,37.542168,-121.93996000000001
Mission San Jose Elementary,43545 Bryant Street,Fremont,Fremont Unified,Alameda,CA,94544.0,10,Active,37.528296000000005,-121.92137
Oliveira Elementary,4180 Alder Avenue,Fremont,Fremont Unified,Alameda,CA,94545.0,9,Active,37.560394,-122.01771000000001
Steven Millard Elementary,5200 Valpey Park Drive,Fremont,Fremont Unified,Alameda,CA,94542.0,9,Active,37.520062,-121.97397
Ardenwood Elementary,33955 Emilia Lane,Fremont,Fremont Unified,Alameda,CA,94545.0,10,Active,37.572796000000004,-122.05205
Fred E. Weibel Elementary,45135 South Grimmer Boulevard,Fremont,Fremont Unified,Alameda,CA,94546.0,10,Active,37.507308,-121.92838
Forest Park Elementary,34400 Maybird Circle,Fremont,Fremont Unified,Alameda,CA,94546.0,10,Active,37.561214,-122.05188000000001
Leadership Public Schools - Hayward,28000 Calaroga Avenue,Hayward,Hayward Unified,Alameda,CA,94540.0,9,Active,37.624193,-122.0879
Stonebrae Elementary,28761 Hayward Boulevard,Hayward,Hayward Unified,Alameda,CA,94541.0,6,Active,37.654731,-122.02046999999999
Impact Academy of Arts & Technology,2560 Darwin Street,Hayward,Hayward Unified,Alameda,CA,94540.0,7,Active,37.631316999999996,-122.10253999999999
Golden Oak Montessori of Hayward,2652 Vergil Ct,Castro Valley,Hayward Unified,Alameda,CA,94541.0,5,Active,37.687804,-122.06973
Brenkwitz High,22100 Princeton Street,Hayward,Hayward Unified,Alameda,CA,94544.0,,Active,37.671956,-122.09895
Hayward High,1633 East Avenue,Hayward,Hayward Unified,Alameda,CA,94541.0,2,Active,37.672677,-122.06992
Mt. Eden High,2300 Panama Street,Hayward,Hayward Unified,Alameda,CA,94541.0,3,Active,37.625313,-122.09056000000001
Tennyson High,27035 Whitman Road,Hayward,Hayward Unified,Alameda,CA,94545.0,1,Active,37.642546,-122.06596
Bowman Elementary,520 Jefferson Street,Hayward,Hayward Unified,Alameda,CA,94544.0,1,Active,37.641372,-122.06231000000001
Burbank Elementary,353 B Street,Hayward,Hayward Unified,Alameda,CA,94544.0,7,Active,37.667925,-122.09427
Cherryland Elementary,585 Willow Avenue,Hayward,Hayward Unified,Alameda,CA,94540.0,1,Active,37.676225,-122.09863999999999
East Avenue Elementary,2424 East Avenue,Hayward,Hayward Unified,Alameda,CA,94542.0,2,Active,37.67083,-122.0543
Eldridge Elementary,26825 Eldridge Avenue,Hayward,Hayward Unified,Alameda,CA,94541.0,3,Active,37.63684,-122.0853
Fairview Elementary,23515 Maud Avenue,Hayward,Hayward Unified,Alameda,CA,94541.0,1,Active,37.680799,-122.05205
Glassbrook Elementary,975 Schafer Road,Hayward,Hayward Unified,Alameda,CA,94541.0,1,Active,37.640941999999995,-122.08084
Harder Elementary,495 Wyeth Road,Hayward,Hayward Unified,Alameda,CA,94545.0,3,Active,37.651511,-122.07236999999999
Hillcrest Elementary,30 Marguerite Drive,Oakland,Oakland Unified,Alameda,CA,94607.0,10,Active,37.840441999999996,-122.23286999999999
Laurel Elementary,3750 Brown Avenue,Oakland,Oakland Unified,Alameda,CA,94605.0,5,Active,37.79307,-122.19663999999999
Longwood Elementary,850 Longwood Avenue,Hayward,Hayward Unified,Alameda,CA,94540.0,2,Active,37.659052,-122.1101
Lorin A. Eden Elementary,27790 Portsmouth Avenue,Hayward,Hayward Unified,Alameda,CA,94544.0,3,Active,37.624161,-122.10008
Markham Elementary,7220 Krause Avenue,Oakland,Oakland Unified,Alameda,CA,94619.0,3,Active,37.765296,-122.17886999999999
Palma Ceia Elementary,27679 Melbourne Avenue,Hayward,Hayward Unified,Alameda,CA,94545.0,4,Active,37.627195,-122.08525
Park Elementary,411 Larchmont Street,Hayward,Hayward Unified,Alameda,CA,94544.0,1,Active,37.652934,-122.09406000000001
Ruus Elementary,28027 Dickens Avenue,Hayward,Hayward Unified,Alameda,CA,94541.0,1,Active,37.627365999999995,-122.07363000000001
Schafer Park Elementary,26268 Flamingo Avenue,Hayward,Hayward Unified,Alameda,CA,94540.0,1,Active,37.642916,-122.08734
Sequoia Elementary,3730 Lincoln Avenue,Oakland,Oakland Unified,Alameda,CA,94607.0,6,Active,37.802314,-122.21141000000001
Southgate Elementary,26601 Calaroga Avenue,Hayward,Hayward Unified,Alameda,CA,94540.0,4,Active,37.639047999999995,-122.09443999999999
Treeview Elementary,30565 Treeview Street,Hayward,Hayward Unified,Alameda,CA,94545.0,4,Active,37.624163,-122.03657
Bret Harte Middle,1047 E Street,Hayward,Hayward Unified,Alameda,CA,94545.0,1,Active,37.670265,-122.07898999999999
Bret Harte Middle,1047 E Street,Hayward,Hayward Unified,Alameda,CA,94545.0,4,Active,37.670265,-122.07898999999999
Bret Harte Middle,3700 Coolidge Avenue,Oakland,Oakland Unified,Alameda,CA,94606.0,1,Active,37.800579,-122.20652
Bret Harte Middle,3700 Coolidge Avenue,Oakland,Oakland Unified,Alameda,CA,94606.0,4,Active,37.800579,-122.20652
Cesar Chavez Middle,27845 Whitman Road,Hayward,Hayward Unified,Alameda,CA,94544.0,1,Active,37.63698,-122.06277
Cesar Chavez Middle,27845 Whitman Road,Hayward,Hayward Unified,Alameda,CA,94544.0,2,Active,37.63698,-122.06277
Cesar Chavez Middle,2801 Hop Ranch Road,Union City,New Haven Unified,Alameda,CA,94606.0,1,Active,37.590189,-122.04735
Cesar Chavez Middle,2801 Hop Ranch Road,Union City,New Haven Unified,Alameda,CA,94606.0,2,Active,37.590189,-122.04735
Anthony W. Ochoa Middle,2121 Depot Road,Hayward,Hayward Unified,Alameda,CA,94545.0,4,Active,37.638836,-122.10968000000001
Winton Middle,119 Winton Avenue,Hayward,Hayward Unified,Alameda,CA,94545.0,1,Active,37.660346999999994,-122.09095
Strobridge Elementary,21400 Bedford Drive,Castro Valley,Hayward Unified,Alameda,CA,94544.0,1,Active,37.687487,-122.08746000000001
Strobridge Elementary,21400 Bedford Drive,Castro Valley,Hayward Unified,Alameda,CA,94550.0,1,Merged,,
Eden Gardens Elementary,2184 Thayer Avenue,Hayward,Hayward Unified,Alameda,CA,94550.0,3,Active,37.638076,-122.10721000000001
Tyrrell Elementary,27000 Tyrrell Avenue,Hayward,Hayward Unified,Alameda,CA,94550.0,1,Active,37.637402,-122.07543000000001
Livermore Valley Charter,3142 Constitution Dr,Livermore,Livermore Valley Joint Unified,Alameda,CA,94550.0,9,Active,37.704857000000004,-121.81841000000001
Vineyard Alternative,1401 Almond Avenue,Livermore,Livermore Valley Joint Unified,Alameda,CA,94551.0,,Active,37.677172,-121.73987
Del Valle Continuation High,2253 Fifth Street,Livermore,Livermore Valley Joint Unified,Alameda,CA,94550.0,,Active,37.678902,-121.76673999999998
Granada High,400 Wall Street,Livermore,Livermore Valley Joint Unified,Alameda,CA,94550.0,9,Active,37.675206,-121.78983999999998
Livermore High,600 Maple Street,Livermore,Livermore Valley Joint Unified,Alameda,CA,94550.0,7,Active,37.680526,-121.76173
Junction K-8,298 Junction Avenue,Livermore,Livermore Valley Joint Unified,Alameda,CA,94551.0,4,Active,37.687022,-121.76704
East Avenue Middle,3951 East Avenue,Livermore,Livermore Valley Joint Unified,Alameda,CA,94550.0,7,Active,37.679821000000004,-121.75005
Emma C. Smith Elementary,391 Ontario Drive,Livermore,Livermore Valley Joint Unified,Alameda,CA,94550.0,9,Active,37.667168,-121.7964
Jackson Avenue Elementary,554 Jackson Avenue,Livermore,Livermore Valley Joint Unified,Alameda,CA,94550.0,8,Active,37.684923,-121.74262
Joe Michell,1001 Elaine Avenue,Livermore,Livermore Valley Joint Unified,Alameda,CA,94550.0,7,Active,37.669568,-121.7835
Marylin Avenue Elementary,800 Marylin Avenue,Livermore,Livermore Valley Joint Unified,Alameda,CA,94551.0,7,Active,37.683865999999995,-121.78603000000001
William Mendenhall Middle,1701 El Padro Drive,Livermore,Livermore Valley Joint Unified,Alameda,CA,94551.0,9,Active,37.664505,-121.79221000000001
Arroyo Seco Elementary,5280 Irene Way,Livermore,Livermore Valley Joint Unified,Alameda,CA,94568.0,8,Active,37.68367,-121.72854
Andrew N. Christensen Middle,5757 Haggin Oaks Avenue,Livermore,Livermore Valley Joint Unified,Alameda,CA,94566.0,7,Active,37.726489,-121.72851999999999
Rancho Las Positas Elementary,401 East Jack London Boulevard,Livermore,Livermore Valley Joint Unified,Alameda,CA,94566.0,7,Active,37.688959000000004,-121.80426999999999
Sunset Elementary,1671 Frankfurt Way,Livermore,Livermore Valley Joint Unified,Alameda,CA,94566.0,9,Active,37.662609,-121.77335
Leo R. Croce Elementary,5650 Scenic Avenue,Livermore,Livermore Valley Joint Unified,Alameda,CA,94568.0,8,Active,37.717069,-121.72833
Altamont Creek Elementary,6500 Garaventa Ranch Road,Livermore,Livermore Valley Joint Unified,Alameda,CA,94568.0,8,Active,37.722319,-121.71838000000001
Mountain House Elementary,3950 Mountain House Road,Byron,Mountain House Elementary,Alameda,CA,94566.0,3,Active,37.787242,-121.57728999999999
Donlon Elementary,4150 Dorman Road,Pleasanton,Murray Elementary,Alameda,CA,94568.0,10,Merged,37.684961,-121.90695
Donlon Elementary,4150 Dorman Road,Pleasanton,Dublin Unified,Alameda,CA,94588.0,10,Merged,,
Donlon Elementary,4150 Dorman Road,Pleasanton,Pleasanton Unified,Alameda,CA,94586.0,10,Active,37.684111,-121.90908
Dublin Elementary,7997 Vomac Road,Dublin,Murray Elementary,Alameda,CA,94560.0,10,Merged,37.714327000000004,-121.93688999999999
Dublin Elementary,7997 Vomac Road,Dublin,Dublin Unified,Alameda,CA,94566.0,10,Active,37.715022999999995,-121.9365
Frederiksen Elementary,7243 Tamarack Drive,Dublin,Murray Elementary,Alameda,CA,94560.0,9,Merged,37.71483,-121.92213000000001
Frederiksen Elementary,7243 Tamarack Drive,Dublin,Dublin Unified,Alameda,CA,94566.0,9,Active,37.715077,-121.92195
Lydiksen Elementary,7700 Highland Oaks Drive,Pleasanton,Murray Elementary,Alameda,CA,94560.0,9,Merged,37.680955,-121.92156999999999
Lydiksen Elementary,7700 Highland Oaks Drive,Pleasanton,Pleasanton Unified,Alameda,CA,94560.0,9,Active,37.680987,-121.9216
Murray Elementary,8435 Davona Drive,Dublin,Murray Elementary,Alameda,CA,94560.0,8,Merged,37.721435,-121.93261000000001
Murray Elementary,8435 Davona Drive,Dublin,Dublin Unified,Alameda,CA,94566.0,8,Active,37.721540000000005,-121.93298
Newark Memorial High,39375 Cedar Boulevard,Newark,Newark Unified,Alameda,CA,94560.0,6,Active,37.522095,-122.00175
Newark Junior High,6201 Lafayette Avenue,Newark,Newark Unified,Alameda,CA,94560.0,6,Merged,,
Newark Junior High,6201 Lafayette Avenue,Newark,Newark Unified,Alameda,CA,94587.0,6,Active,37.542978999999995,-122.03685
August Schilling Elementary,36901 Spruce Street,Newark,Newark Unified,Alameda,CA,94560.0,1,Active,37.528261,-122.04613
E. L. Musick Elementary,5735 Musick Avenue,Newark,Newark Unified,Alameda,CA,94560.0,6,Active,37.542291999999996,-122.03169
H. A. Snow Elementary,6580 Mirabeau Drive,Newark,Newark Unified,Alameda,CA,94560.0,6,Active,37.542891999999995,-122.05046000000002
James A. Graham Elementary,36270 Cherry Street,Newark,Newark Unified,Alameda,CA,94560.0,4,Active,37.538506,-122.04239
James L. Bunker Elementary,6071 Smith Avenue,Newark,Newark Unified,Alameda,CA,94560.0,9,Active,37.529247999999995,-122.01508000000001
John F. Kennedy Elementary,35430 Blackburn Drive,Newark,Newark Unified,Alameda,CA,94560.0,7,Active,37.551671,-122.04247
Lincoln Elementary,36111 Bettencourt Street,Newark,Newark Unified,Alameda,CA,94560.0,10,Active,37.535889000000005,-122.05195
Lincoln Elementary,36111 Bettencourt Street,Newark,Newark Unified,Alameda,CA,94560.0,7,Active,37.535889000000005,-122.05195
Lincoln Elementary,225 11th Street,Oakland,Oakland Unified,Alameda,CA,94609.0,10,Active,37.80011,-122.26715
Lincoln Elementary,225 11th Street,Oakland,Oakland Unified,Alameda,CA,94609.0,7,Active,37.80011,-122.26715
Louis Milani Elementary,37490 Birch Street,Newark,Newark Unified,Alameda,CA,94587.0,4,Active,37.533967,-122.02246000000001
Decoto School for Independent Study,600 G Street,Union City,New Haven Unified,Alameda,CA,94587.0,1,Active,37.600133,-122.01981
James Logan High,1800 H Street,Union City,New Haven Unified,Alameda,CA,94587.0,,Active,37.592494,-122.02604
Alvarado Elementary,31100 Fredi Street,Union City,New Haven Unified,Alameda,CA,94587.0,6,Active,37.595622,-122.07693
Hillview Crest Elementary,31410 Wheelon Avenue,Hayward,New Haven Unified,Alameda,CA,94587.0,3,Active,37.614362,-122.03627
Searles Elementary,33629 15th Street,Union City,New Haven Unified,Alameda,CA,94607.0,3,Active,37.596063,-122.02717
Alvarado Middle,31604 Alvarado Boulevard,Union City,New Haven Unified,Alameda,CA,94605.0,6,Active,37.591746,-122.08036000000001
Pioneer Elementary,32737 Bel Aire Street,Union City,New Haven Unified,Alameda,CA,94606.0,7,Active,37.572076,-122.07167
Tom Kitayama Elementary,1959 Sunsprite Drive,Union City,New Haven Unified,Alameda,CA,94601.0,6,Active,37.601467,-122.04978999999999
Guy Jr. Emanuele Elementary,100 Decoto Road,Union City,New Haven Unified,Alameda,CA,94601.0,4,Active,37.602005,-122.01592
Delaine Eastin Elementary,34901 Eastin Drive,Union City,New Haven Unified,Alameda,CA,94601.0,9,Active,37.566838,-122.07483
Oakland Unity High,6038 Brann Street,Oakland,Oakland Unified,Alameda,CA,94605.0,4,Active,37.773706,-122.18548
East Oakland Leadership Academy,2614 Seminary Avenue,Oakland,Oakland Unified,Alameda,CA,93601.0,4,Active,37.771840000000005,-122.18986000000001
ACORN Woodland Elementary,1025 81st Avenue,Oakland,Oakland Unified,Alameda,CA,94611.0,5,Active,37.752862,-122.18605
MetWest High,1100 3rd Avenue,Oakland,Oakland Unified,Alameda,CA,94605.0,2,Active,37.795603,-122.25683000000001
Think College Now,2825 International Boulevard,Oakland,Oakland Unified,Alameda,CA,94605.0,7,Active,37.78008,-122.2305
EnCompass Academy Elementary,1025 81st Avenue,Oakland,Oakland Unified,Alameda,CA,94608.0,2,Active,37.752862,-122.18605
Community Day,4917 Mountain Boulevard,Oakland,Oakland Unified,Alameda,CA,94608.0,,Active,37.78844,-122.17803
Oakland Community Day Middle,4917 Mountain Boulevard,Oakland,Oakland Unified,Alameda,CA,94601.0,,Active,37.78844,-122.17803
Bay Area Technology,8251 Fontaine Street,Oakland,Oakland Unified,Alameda,CA,94607.0,3,Active,37.766251000000004,-122.15438999999999
Lighthouse Community Charter High,444 Hegenberger Road,Oakland,Oakland Unified,Alameda,CA,94621.0,7,Active,37.73705,-122.19663
Aspire Berkley Maynard Academy,6200 San Pablo Avenue,Oakland,Oakland Unified,Alameda,CA,94618.0,7,Active,37.844798,-122.28416000000001
McClymonds High,2607 Myrtle Street,Oakland,Oakland Unified,Alameda,CA,94607.0,1,Active,37.817864,-122.27863
Reach Academy,9860 Sunnyside Street,Oakland,Oakland Unified,Alameda,CA,94607.0,1,Active,37.746513,-122.16181999999999
Manzanita SEED,2409 East 27th Street,Oakland,Oakland Unified,Alameda,CA,94601.0,5,Active,37.792204,-122.2239
Sankofa Academy,581 61st Street,Oakland,Oakland Unified,Alameda,CA,94601.0,2,Active,37.847125,-122.26443
Rise Community,8521 A Street,Oakland,Oakland Unified,Alameda,CA,94603.0,1,Active,37.752093,-122.17863999999999
Achieve Academy,1700 28th Avenue,Oakland,Oakland Unified,Alameda,CA,94621.0,7,Active,37.782892,-122.22696
American Indian Public High,3637 Magee Avenue,Oakland,Oakland Unified,Alameda,CA,94603.0,10,Active,37.793510999999995,-122.19927
United for Success Academy,2101 35th Avenue,Oakland,Oakland Unified,Alameda,CA,94607.0,1,Active,37.784286,-122.21676000000001
Alliance Academy,1800 98th Avenue,Oakland,Oakland Unified,Alameda,CA,94621.0,1,Active,37.746371999999994,-122.16609
Elmhurst Community Prep,1800 98th Avenue,Oakland,Oakland Unified,Alameda,CA,94601.0,1,Active,37.746371999999994,-122.16609
Coliseum College Prep Academy,1390 66th Avenue,Oakland,Oakland Unified,Alameda,CA,94607.0,2,Active,37.761975,-122.19337
ROOTS International Academy,1390 66th Avenue,Oakland,Oakland Unified,Alameda,CA,94621.0,1,Active,37.761975,-122.19337
Fred T. Korematsu Discovery Academy,10315 E Street,Oakland,Oakland Unified,Alameda,CA,94601.0,2,Active,37.737501,-122.17355
American Indian Public Charter School II,171 12th Street,Oakland,Oakland Unified,Alameda,CA,94601.0,10,Active,37.800368,-122.26548000000001
Conservatory of Vocal/Instrumental Arts,3800 Mountain Boulevard,Oakland,Oakland Unified,Alameda,CA,94621.0,8,Active,37.800277,-122.18642
Oakland Charter High,345 12th Street,Oakland,Oakland Unified,Alameda,CA,94621.0,10,Active,37.801907,-122.26953999999999
KIPP Bridge Charter,991 14th Street,Oakland,Oakland Unified,Alameda,CA,94607.0,9,Active,37.80873,-122.28272
Community United Elementary,6701 International Boulevard,Oakland,Oakland Unified,Alameda,CA,94605.0,1,Active,37.761424,-122.19188
ARISE High,"3301 East 12th Street, Suite 205",Oakland,Oakland Unified,Alameda,CA,94609.0,1,Active,37.776162,-122.22506000000001
Civicorps Corpsmember Academy,101 Myrtle Street,Oakland,Oakland Unified,Alameda,CA,94605.0,,Active,37.798778999999996,-122.28556
Futures Elementary,6701 International Boulevard,Oakland,Oakland Unified,Alameda,CA,94610.0,1,Active,37.761424,-122.19188
Global Family,2035 40th Avenue,Oakland,Oakland Unified,Alameda,CA,94607.0,1,Active,37.779348999999996,-122.21325
Learning Without Limits,2035 40th Avenue,Oakland,Oakland Unified,Alameda,CA,94607.0,1,Active,37.779348999999996,-122.21325
East Oakland Pride Elementary,8000 Birch Street,Oakland,Oakland Unified,Alameda,CA,94601.0,1,Active,37.759065,-122.17445
Greenleaf Elementary,6328 East 17th Street,Oakland,Oakland Unified,Alameda,CA,94608.0,6,Active,37.764386,-122.19483999999999
West Oakland Middle,991 14th Street,Oakland,Oakland Unified,Alameda,CA,94609.0,1,Active,37.80873,-122.28272
Oakland International High,4521 Webster Street,Oakland,Oakland Unified,Alameda,CA,94608.0,1,Active,37.833534,-122.26018
Ralph J. Bunche High,1240 18th Street,Oakland,Oakland Unified,Alameda,CA,94605.0,1,Active,37.8132,-122.28783999999999
Gateway to College at Laney College,900 Fallon Street,Oakland,Oakland Unified,Alameda,CA,94601.0,,Active,37.797155,-122.26377
Aspire ERES Academy,1936 Courtland Avenue,Oakland,Oakland Unified,Alameda,CA,94607.0,7,Active,37.775676000000004,-122.21206000000001
Infant and Preschool Program,4521 Webster Street,Oakland,Oakland Unified,Alameda,CA,94605.0,,Active,37.833836,-122.26061999999999
Vincent Academy,1911 Union Street,Oakland,Oakland Unified,Alameda,CA,94605.0,2,Active,37.814131,-122.28735
Castlemont High,8601 MacArthur Boulevard,Oakland,Oakland Unified,Alameda,CA,94607.0,1,Active,37.759536,-122.16291000000001
Fremont High,4610 Foothill Boulevard,Oakland,Oakland Unified,Alameda,CA,94619.0,,Active,37.7744,-122.20971999999999
LPS Oakland R & D Campus,"8601 MacArthur Boulevard, Building 100",Oakland,Oakland Unified,Alameda,CA,94608.0,4,Active,37.759536,-122.16291000000001
Rudsdale Continuation,8251 Fontaine Street,Oakland,Oakland Unified,Alameda,CA,94608.0,1,Active,37.766251000000004,-122.15438999999999
LIFE Academy,2101 35th Avenue,Oakland,Oakland Unified,Alameda,CA,94605.0,2,Active,37.784286,-122.21676000000001
Lighthouse Community Charter,444 Hegenberger Street,Oakland,Oakland Unified,Alameda,CA,94609.0,5,Active,37.73705,-122.19663
Dewey Academy,1111 2nd Avenue,Oakland,Oakland Unified,Alameda,CA,94619.0,,Active,37.796704999999996,-122.25816999999999
Oakland High,1023 MacArthur Boulevard,Oakland,Oakland Unified,Alameda,CA,94605.0,1,Active,37.80529,-122.23652
Oakland Technical High,4351 Broadway,Oakland,Oakland Unified,Alameda,CA,94619.0,4,Active,37.831725,-122.25413
Skyline High,12250 Skyline Boulevard,Oakland,Oakland Unified,Alameda,CA,94601.0,1,Active,37.797495,-122.1636
Oakland School for the Arts,530 18th Street,Oakland,Oakland Unified,Alameda,CA,94605.0,9,Active,37.807834,-122.27113
Allendale Elementary,3670 Penniman Avenue,Oakland,Oakland Unified,Alameda,CA,94606.0,1,Active,37.788641999999996,-122.20516
Bella Vista Elementary,1025 East 28th Street,Oakland,Oakland Unified,Alameda,CA,94607.0,6,Active,37.800354999999996,-122.23708
Brookfield Elementary,401 Jones Avenue,Oakland,Oakland Unified,Alameda,CA,94610.0,1,Active,37.734711,-122.189
Burckhalter Elementary,3994 Burckhalter Avenue,Oakland,Oakland Unified,Alameda,CA,94608.0,3,Active,37.775578,-122.16678999999999
Carl B. Munck Elementary,11900 Campus Drive,Oakland,Oakland Unified,Alameda,CA,94611.0,5,Active,37.794753,-122.17381999999999
Howard Elementary,8755 Fontaine Street,Oakland,Oakland Unified,Alameda,CA,94609.0,4,Active,37.76215,-122.15135
Cleveland Elementary,745 Cleveland Street,Oakland,Oakland Unified,Alameda,CA,94602.0,10,Active,37.804369,-122.24405
Crocker Highlands Elementary,525 Midcrest Road,Oakland,Oakland Unified,Alameda,CA,94602.0,10,Active,37.811364000000005,-122.22738000000001
Fruitvale Elementary,3200 Boston Avenue,Oakland,Oakland Unified,Alameda,CA,94601.0,1,Active,37.796228,-122.21406999999999
Garfield Elementary,1640 22nd Avenue,Oakland,Oakland Unified,Alameda,CA,94601.0,2,Active,37.786684,-122.23578
Garfield Elementary,1640 22nd Avenue,Oakland,Oakland Unified,Alameda,CA,94601.0,3,Active,37.786684,-122.23578
Garfield Elementary,13050 Aurora Drive,San Leandro,San Leandro Unified,Alameda,CA,94578.0,2,Active,37.70401,-122.18606000000001
Garfield Elementary,13050 Aurora Drive,San Leandro,San Leandro Unified,Alameda,CA,94578.0,3,Active,37.70401,-122.18606000000001
Glenview Elementary,4215 La Cresta Avenue,Oakland,Oakland Unified,Alameda,CA,94611.0,8,Active,37.805477,-122.21876999999999
Grass Valley Elementary,4720 Dunkirk Avenue,Oakland,Oakland Unified,Alameda,CA,94619.0,3,Active,37.753009999999996,-122.12585
Kaiser Elementary,25 South Hill Court,Oakland,Oakland Unified,Alameda,CA,94610.0,7,Active,37.853077,-122.23181000000001
New Highland Academy,8521 A Street,Oakland,Oakland Unified,Alameda,CA,94619.0,1,Active,37.752093,-122.17863999999999
Horace Mann Elementary,5222 Ygnacio Avenue,Oakland,Oakland Unified,Alameda,CA,94621.0,2,Active,37.77355,-122.20245
Joaquin Miller Elementary,5525 Ascot Drive,Oakland,Oakland Unified,Alameda,CA,94601.0,9,Active,37.818545,-122.20177
Lafayette Elementary,1700 Market Street,Oakland,Oakland Unified,Alameda,CA,94601.0,1,Active,37.810356,-122.27991000000002
Manzanita Community,2409 East 27th Street,Oakland,Oakland Unified,Alameda,CA,94607.0,1,Active,37.792204,-122.2239
Bridges Academy,1325 53rd Avenue,Oakland,Oakland Unified,Alameda,CA,94608.0,1,Active,37.767781,-122.20653
Montclair Elementary,1757 Mountain Boulevard,Oakland,Oakland Unified,Alameda,CA,94602.0,10,Active,37.831092,-122.21281
Parker Elementary,7929 Ney Avenue,Oakland,Oakland Unified,Alameda,CA,94603.0,7,Active,37.765640000000005,-122.16559
Peralta Elementary,460 63rd Street,Oakland,Oakland Unified,Alameda,CA,94603.0,10,Active,37.848963,-122.25881000000001
Piedmont Avenue Elementary,4314 Piedmont Avenue,Oakland,Oakland Unified,Alameda,CA,94619.0,5,Active,37.829071,-122.24878999999999
Redwood Heights Elementary,4401 39th Avenue,Oakland,Oakland Unified,Alameda,CA,94609.0,7,Active,37.797077,-122.18626
Madison Park Academy TK-5,470 El Paseo Drive,Oakland,Oakland Unified,Alameda,CA,94621.0,1,Active,37.728041,-122.17748999999999
Esperanza Elementary,10315 E Street,Oakland,Oakland Unified,Alameda,CA,94602.0,4,Active,37.737501,-122.17355
Thornhill Elementary,5880 Thornhill Drive,Oakland,Oakland Unified,Alameda,CA,94603.0,10,Active,37.836187,-122.21152
Claremont Middle,5750 College Avenue,Oakland,Oakland Unified,Alameda,CA,94612.0,2,Active,37.845752000000005,-122.25183999999999
Frick Middle,2845 64th Avenue,Oakland,Oakland Unified,Alameda,CA,94621.0,1,Active,37.771513,-122.18348999999999
Hoover Elementary,890 Brockhurst Street,Oakland,Oakland Unified,Alameda,CA,94603.0,1,Active,37.822947,-122.27445
Edna Brewer Middle,3748 13th Avenue,Oakland,Oakland Unified,Alameda,CA,94606.0,4,Active,37.803854,-122.22953999999999
Montera Middle,5555 Ascot Drive,Oakland,Oakland Unified,Alameda,CA,94606.0,5,Active,37.818785,-122.2016
Roosevelt Middle,1926 19th Avenue,Oakland,Oakland Unified,Alameda,CA,94605.0,1,Active,37.789693,-122.23793
Westlake Middle,2629 Harrison Street,Oakland,Oakland Unified,Alameda,CA,94601.0,1,Active,37.814592,-122.25991
Madison Park Academy 6-12,400 Capistrano Drive,Oakland,Oakland Unified,Alameda,CA,94606.0,1,Active,37.727775,-122.17918
La Escuelita Elementary,1100 Third Avenue,Oakland,Oakland Unified,Alameda,CA,94608.0,5,Active,37.796003999999996,-122.25726999999999
Hillside Academy,2369 84th Avenue,Oakland,Oakland Unified,Alameda,CA,94608.0,,Active,37.759698,-122.16673
Oakland Charter Academy,3001 International Boulevard,Oakland,Oakland Unified,Alameda,CA,94619.0,10,Active,37.778531,-122.22776
American Indian Public Charter,3637 Magee Avenue,Oakland,Oakland Unified,Alameda,CA,94601.0,10,Active,37.793407,-122.19951999999999
Aspire Monarch Academy,1445 101st Avenue,Oakland,Oakland Unified,Alameda,CA,94608.0,3,Active,37.742304,-122.16833000000001
North Oakland Community Charter,1000 42nd Street,Oakland,Oakland Unified,Alameda,CA,94611.0,9,Active,37.832839,-122.27623999999999
ASCEND,3709 East 12th Street,Oakland,Oakland Unified,Alameda,CA,94611.0,3,Active,37.774031,-122.22166000000001
International Community,2825 International Boulevard,Oakland,Oakland Unified,Alameda,CA,94611.0,3,Active,37.78008,-122.2305
Melrose Leadership Academy,4730 Fleming Avenue,Oakland,Oakland Unified,Alameda,CA,94611.0,1,Active,37.780326,-122.19779
Urban Promise Academy,3031 East 18th Street,Oakland,Oakland Unified,Alameda,CA,94611.0,4,Active,37.782323999999996,-122.22487
Millennium High Alternative,760 Magnolia Avenue,Piedmont,Piedmont City Unified,Alameda,CA,94566.0,,Active,37.822804,-122.23393
Piedmont High,800 Magnolia Avenue,Piedmont,Piedmont City Unified,Alameda,CA,94566.0,10,Active,37.823674,-122.2329
Beach Elementary,100 Lake Ave,Piedmont,Piedmont City Unified,Alameda,CA,94579.0,10,Active,37.824201,-122.24707
Havens Elementary,323 Highland Avenue,Piedmont,Piedmont City Unified,Alameda,CA,94579.0,10,Active,37.825712,-122.23263
Wildwood Elementary,301 Wildwood Ave,Piedmont,Piedmont City Unified,Alameda,CA,94577.0,10,Active,37.819701,-122.23495
Piedmont Middle,740 Magnolia Avenue,Piedmont,Piedmont City Unified,Alameda,CA,94577.0,10,Active,37.823132,-122.23353999999999
Alisal Elementary,1454 Santa Rita Road,Pleasanton,Pleasanton Joint Elementary,Alameda,CA,94577.0,9,Merged,37.672236,-121.87216000000001
Alisal Elementary,1454 Santa Rita Road,Pleasanton,Pleasanton Unified,Alameda,CA,94586.0,9,Active,37.672366,-121.87207
Fairlands Elementary,4151 W. Las Positas,Pleasanton,Pleasanton Joint Elementary,Alameda,CA,94577.0,10,Merged,37.691819,-121.87401000000001
Fairlands Elementary,4151 West Las Positas Boulevard,Pleasanton,Pleasanton Unified,Alameda,CA,94214.0,10,Active,37.692602,-121.87433
Valley View Elementary,480 Adams Way,Pleasanton,Pleasanton Joint Elementary,Alameda,CA,94578.0,9,Merged,37.659504999999996,-121.86358
Valley View Elementary,480 Adams Way,Pleasanton,Pleasanton Unified,Alameda,CA,94580.0,9,Active,37.659867999999996,-121.86362
Walnut Grove Elementary,1999 Harvest Road,Pleasanton,Pleasanton Joint Elementary,Alameda,CA,94577.0,10,Merged,37.673308,-121.88636000000001
Walnut Grove Elementary,1999 Harvest Road,Pleasanton,Pleasanton Unified,Alameda,CA,94551.0,10,Active,37.673219,-121.88537
Vintage Hills Elementary,1125 Concord Street,Pleasanton,Pleasanton Joint Elementary,Alameda,CA,94577.0,10,Merged,37.655681,-121.85486999999999
Vintage Hills Elementary,1125 Concord Street,Pleasanton,Pleasanton Unified,Alameda,CA,94551.0,10,Active,37.655902000000005,-121.85501000000001
San Leandro High,2200 Bancroft Avenue,San Leandro,San Leandro Unified,Alameda,CA,94577.0,3,Active,37.717128,-122.14256
Madison Elementary,14751 Juniper Street,San Leandro,San Leandro Unified,Alameda,CA,94580.0,8,Active,37.69549,-122.16045
McKinley Elementary,2150 East 14th Street,San Leandro,San Leandro Unified,Alameda,CA,94541.0,4,Active,37.718877,-122.14747
Monroe Elementary,3750 Monterey Boulevard,San Leandro,San Leandro Unified,Alameda,CA,94580.0,3,Active,37.698153999999995,-122.1462
Roosevelt Elementary,951 Dowling Boulevard,San Leandro,San Leandro Unified,Alameda,CA,94580.0,7,Active,37.736384,-122.14676000000001
Wilson Elementary,1300 Williams Street,San Leandro,San Leandro Unified,Alameda,CA,94579.0,4,Active,37.715169,-122.16573000000001
Bancroft Middle,1150 Bancroft Avenue,San Leandro,San Leandro Unified,Alameda,CA,94579.0,2,Active,37.729172999999996,-122.14863000000001
John Muir Middle,1444 Williams Street,San Leandro,San Leandro Unified,Alameda,CA,94541.0,4,Active,37.714146,-122.16816999999999
KIPP Summit Academy,2005 Via Barrett,San Lorenzo,San Lorenzo Unified,Alameda,CA,94578.0,10,Active,37.674299,-122.14985
East Bay Arts High,20450 Royal Avenue,Hayward,San Lorenzo Unified,Alameda,CA,94580.0,2,Active,37.668976,-122.11506000000001
KIPP King Collegiate High,2005 Via Barrett,San Lorenzo,San Lorenzo Unified,Alameda,CA,94580.0,9,Active,37.674299,-122.14985
Arroyo High,15701 Lorenzo Avenue,San Lorenzo,San Lorenzo Unified,Alameda,CA,94579.0,7,Active,37.68081,-122.13836
San Lorenzo High,50 East Lewelling Boulevard,San Lorenzo,San Lorenzo Unified,Alameda,CA,94580.0,2,Active,37.686688000000004,-122.12256000000001
Bay Elementary,2001 Bockman Road,San Lorenzo,San Lorenzo Unified,Alameda,CA,94578.0,5,Active,37.671559,-122.14738
Bohannon Middle,800 Bockman Road,San Lorenzo,San Lorenzo Unified,Alameda,CA,94579.0,2,Active,37.6708,-122.12818999999999
Colonial Acres Elementary,17115 Meekland Avenue,Hayward,San Lorenzo Unified,Alameda,CA,94580.0,1,Active,37.683564000000004,-122.11616000000001
Corvallis Elementary,14790 Corvallis Street,San Leandro,San Lorenzo Unified,Alameda,CA,94541.0,4,Active,37.696616999999996,-122.15235
Dayton Elementary,1500 Dayton Avenue,San Lorenzo,San Lorenzo Unified,Alameda,CA,94580.0,5,Active,37.688544,-122.15676
Del Rey Elementary,1510 Via Sonya,San Lorenzo,San Lorenzo Unified,Alameda,CA,94541.0,4,Active,37.668638,-122.13656999999999
Edendale Middle,16160 Ashland Avenue,San Lorenzo,San Lorenzo Unified,Alameda,CA,94580.0,1,Active,37.69527,-122.11891999999999
Grant Elementary,879 Grant Avenue,San Lorenzo,San Lorenzo Unified,Alameda,CA,94550.0,5,Active,37.680371,-122.13503999999999
Hesperian Elementary,620 Drew Street,San Lorenzo,San Lorenzo Unified,Alameda,CA,94551.0,4,Active,37.694016,-122.12531000000001
Hillside Elementary,15980 Marcella Street,San Leandro,San Lorenzo Unified,Alameda,CA,94545.0,1,Active,37.701827,-122.11702
Lorenzo Manor Elementary,18250 Bengal Street,Hayward,San Lorenzo Unified,Alameda,CA,94538.0,2,Active,37.674293,-122.11946
Washington Manor Middle,1170 Fargo Avenue,San Leandro,San Lorenzo Unified,Alameda,CA,94541.0,5,Active,37.68842,-122.14811999999999
Sunol Glen Elementary,Main & Bond Streets,Sunol,Sunol Glen Elementary,Alameda,CA,94568.0,10,Merged,,
Sunol Glen Elementary,11601 Main Street,Sunol,Sunol Glen Unified,Alameda,CA,,10,Active,37.593598,-121.8851
John Green Elementary,3300 Antone Way,Dublin,Dublin Unified,Alameda,CA,94568.0,10,Active,37.7181,-121.8615
Harold William Kolb,3150 Palermo Way,Dublin,Dublin Unified,Alameda,CA,94568.0,10,Active,37.711929999999995,-121.8587
Wells Middle,6800 Penn Drive,Dublin,Dublin Unified,Alameda,CA,94588.0,9,Active,37.712563,-121.9188
James Dougherty Elementary,5301 Hibernia Drive,Dublin,Dublin Unified,Alameda,CA,94566.0,10,Active,37.710390000000004,-121.88512
Harvest Park Middle,4900 Valley Avenue,Pleasanton,Pleasanton Unified,Alameda,CA,94545.0,10,Active,37.675554999999996,-121.88268000000001
Pleasanton Middle,5001 Case Avenue,Pleasanton,Pleasanton Unified,Alameda,CA,94551.0,10,Active,37.65696,-121.88156000000001
Henry P. Mohr Elementary,3300 Dennis Drive,Pleasanton,Pleasanton Unified,Alameda,CA,,10,Active,37.692501,-121.86011
Thomas S. Hart Middle,4433 Willow Road,Pleasanton,Pleasanton Unified,Alameda,CA,,10,Active,37.685426,-121.89828
Phoebe Apperson Hearst Elementary,5301 Case Avenue,Pleasanton,Pleasanton Unified,Alameda,CA,,10,Active,37.65245,-121.88432
